[{"OBJECT_NAME":"STARLINK-30840","OBJECT_ID":"2023-170T","EPOCH":"2026-03-09T15:55:35.849568","MEAN_MOTION":15.2673242,"ECCENTRICITY":0.0001899,"INCLINATION":42.9963,"RA_OF_ASC_NODE":194.5006,"ARG_OF_PERICENTER":169.1823,"MEAN_ANOMALY":190.907,"EPHEMERIS_TYPE":0,"CLASSIFICATION_TYPE":"U","NORAD_CAT_ID":58223,"ELEMENT_SET_NO":999,"REV_AT_EPOCH":13029,"BSTAR":-3.2406398e-5,"MEAN_MOTION_DOT":-1.129e-5,"MEAN_MOTION_DDOT":0},{"OBJECT_NAME":"TIANMU-1 19","OBJECT_ID":"2023-208A","EPOCH":"2026-03-09T22:13:36.801696","MEAN_MOTION":15.2984143,"ECCENTRICITY":0.00039292,"INCLINATION":97.4383,"RA_OF_ASC_NODE":184.9132,"ARG_OF_PERICENTER":316.2611,"MEAN_ANOMALY":43.8317,"EPHEMERIS_TYPE":0,"CLASSIFICATION_TYPE":"U","NORAD_CAT_ID":58660,"ELEMENT_SET_NO":999,"REV_AT_EPOCH":12214,"BSTAR":0.00040995676,"MEAN_MOTION_DOT":0.00011779,"MEAN_MOTION_DDOT":0}]
